$$SOE
2460714.500000000, A.D. 2025-Feb-08 00:00:00.0000, 1.453742807608537E+08, -2.891385261572967E+08, 9.401663351642966E+07,
2460721.500000000, A.D. 2025-Feb-15 00:00:00.0000, 1.575322644985525E+08, -2.831108354076450E+08, 9.407661291421770E+07,
2460728.500000000, A.D. 2025-Feb-22 00:00:00.0000, 1.694911406997946E+08, -2.767253456015911E+08, 9.401767879976930E+07,
2460735.500000000, A.D. 2025-Mar-01 00:00:00.0000, 1.812367113267802E+08, -2.699916170058551E+08, 9.384041207958570E+07,
2460742.500000000, A.D. 2025-Mar-08 00:00:00.0000, 1.927554058160774E+08, -2.629199206530654E+08, 9.354566039129961E+07,
2460749.500000000, A.D. 2025-Mar-15 00:00:00.0000, 2.040343302845792E+08, -2.555211799854877E+08, 9.313453020686439E+07,
2460756.500000000, A.D. 2025-Mar-22 00:00:00.0000, 2.150613082423203E+08, -2.478069103085557E+08, 9.260837725765270E+07,
2460763.500000000, A.D. 2025-Mar-29 00:00:00.0000, 2.258249160795599E+08, -2.397891577124005E+08, 9.196879505277780E+07,
2460770.500000000, A.D. 2025-Apr-05 00:00:00.0000, 2.363145134686549E+08, -2.314804351557068E+08, 9.121760190772279E+07,
2460777.500000000, A.D. 2025-Apr-12 00:00:00.0000, 2.465202666907675E+08, -2.228936564368734E+08, 9.035682687443508E+07,
2460784.500000000, A.D. 2025-Apr-19 00:00:00.0000, 2.564331647512822E+08, -2.140420697386461E+08, 8.938869473280306E+07,
2460791.500000000, A.D. 2025-Apr-26 00:00:00.0000, 2.660450287143858E+08, -2.049391917135106E+08, 8.831561022052327E+07,
2460798.500000000, A.D. 2025-May-03 00:00:00.0000, 2.753485146265486E+08, -1.955987428008705E+08, 8.714014171007781E+07,
2460805.500000000, A.D. 2025-May-10 00:00:00.0000, 2.843371103979677E+08, -1.860345844124517E+08, 8.586500454289800E+07,
2460812.500000000, A.D. 2025-May-17 00:00:00.0000, 2.930051270890496E+08, -1.762606585981490E+08, 8.449304421582715E+07,
2460819.500000000, A.D. 2025-May-24 00:00:00.0000, 3.013476852414287E+08, -1.662909307369557E+08, 8.302721958732903E+07,
2460826.500000000, A.D. 2025-May-31 00:00:00.0000, 3.093606971797036E+08, -1.561393353475519E+08, 8.147058626310630E+07,
2460833.500000000, A.D. 2025-Jun-07 00:00:00.0000, 3.170408454219887E+08, -1.458197241379969E+08, 7.982628045382929E+07,
2460840.500000000, A.D. 2025-Jun-14 00:00:00.0000, 3.243855553868746E+08, -1.353458172088782E+08, 7.809750360600567E+07,
2460847.500000000, A.D. 2025-Jun-21 00:00:00.0000, 3.313929641613958E+08, -1.247311608500872E+08, 7.628750754190925E+07,
2460854.500000000, A.D. 2025-Jun-28 00:00:00.0000, 3.380618889944324E+08, -1.139890902583024E+08, 7.439958005863318E+07,
2460861.500000000, A.D. 2025-Jul-05 00:00:00.0000, 3.443917945178027E+08, -1.031326950431837E+08, 7.243703137544645E+07,
2460868.500000000, A.D. 2025-Jul-12 00:00:00.0000, 3.503827579969555E+08, -9.217478829190624E+07, 7.040318152813162E+07,
2460875.500000000, A.D. 2025-Jul-19 00:00:00.0000, 3.560354332627814E+08, -8.112787967766395E+07, 6.830134868453506E+07,
2460882.500000000, A.D. 2025-Jul-26 00:00:00.0000, 3.613510139629592E+08, -7.000415253540833E+07, 6.613483838217437E+07,
2460889.500000000, A.D. 2025-Aug-02 00:00:00.0000, 3.663311965895587E+08, -5.881544471643723E+07, 6.390693369556381E+07,
2460896.500000000, A.D. 2025-Aug-09 00:00:00.0000, 3.709781436563327E+08, -4.757323304423472E+07, 6.162088632882717E+07,
2460903.500000000, A.D. 2025-Aug-16 00:00:00.0000, 3.752944474087783E+08, -3.628862122273867E+07, 5.927990860760079E+07,
2460910.500000000, A.D. 2025-Aug-23 00:00:00.0000, 3.792830946209553E+08, -2.497233095325463E+07, 5.688716631950150E+07,
2460917.500000000, A.D. 2025-Aug-30 00:00:00.0000, 3.829474330264508E+08, -1.363469530646518E+07, 5.444577239721365E+07,
2460924.500000000, A.D. 2025-Sep-06 00:00:00.0000, 3.862911381487166E+08, -2.285653102783479E+06, 5.195878161733393E+07,
2460931.500000000, A.D. 2025-Sep-13 00:00:00.0000, 3.893181790118152E+08, 9.065253458864462E+06, 4.942918622316600E+07,
2460938.500000000, A.D. 2025-Sep-20 00:00:00.0000, 3.920327861185492E+08, 2.040887651602652E+07, 4.685991198918068E+07,
2460945.500000000, A.D. 2025-Sep-27 00:00:00.0000, 3.944394228348369E+08, 3.173645894630746E+07, 4.425381483395661E+07,
2460952.500000000, A.D. 2025-Oct-04 00:00:00.0000, 3.965427582198043E+08, 4.303963022419661E+07, 4.161367816054179E+07,
2460959.500000000, A.D. 2025-Oct-11 00:00:00.0000, 3.983476409620846E+08, 5.431040100199442E+07, 3.894221083171667E+07,
2460966.500000000, A.D. 2025-Oct-18 00:00:00.0000, 3.998590747200643E+08, 6.554115634169360E+07, 3.624204568264657E+07,
2460973.500000000, A.D. 2025-Oct-25 00:00:00.0000, 4.010821950026051E+08, 7.672464779649313E+07, 3.351573851114200E+07,
2460980.500000000, A.D. 2025-Nov-01 00:00:00.0000, 4.020222476121632E+08, 8.785398453064577E+07, 3.076576749679968E+07,
2460987.500000000, A.D. 2025-Nov-08 00:00:00.0000, 4.026845686549489E+08, 9.892262360465167E+07, 2.799453299863253E+07,
2460994.500000000, A.D. 2025-Nov-15 00:00:00.0000, 4.030745662256209E+08, 1.099243595108406E+08, 2.520435767007808E+07,
2461001.500000000, A.D. 2025-Nov-22 00:00:00.0000, 4.031977041193004E+08, 1.208533133081663E+08, 2.239748683158910E+07,
2461008.500000000, A.D. 2025-Nov-29 00:00:00.0000, 4.030594873583375E+08, 1.317039226069863E+08, 1.957608916899922E+07,
2461015.500000000, A.D. 2025-Dec-06 00:00:00.0000, 4.026654471932583E+08, 1.424709323742350E+08, 1.674225792028897E+07,
2461022.500000000, A.D. 2025-Dec-13 00:00:00.0000, 4.020211259502475E+08, 1.531493832824024E+08, 1.389801220347525E+07,
2461029.500000000, A.D. 2025-Dec-20 00:00:00.0000, 4.011320651521524E+08, 1.637345987045846E+08, 1.104529821842922E+07,
2461036.500000000, A.D. 2025-Dec-27 00:00:00.0000, 4.000037957687477E+08, 1.742221730171531E+08, 8.185990605122171E+06,
2461043.500000000, A.D. 2026-Jan-03 00:00:00.0000, 3.986418290682340E+08, 1.846079606567151E+08, 5.321894017101899E+06,
2461050.500000000, A.D. 2026-Jan-10 00:00:00.0000, 3.970516481126984E+08, 1.948880653057956E+08, 2.454744822382808E+06,
2461057.500000000, A.D. 2026-Jan-17 00:00:00.0000, 3.952387000643529E+08, 2.050588291608692E+08, -4.137871171194464E+05,
2461064.500000000, A.D. 2026-Jan-24 00:00:00.0000, 3.932083893164171E+08, 2.151168223434196E+08, -3.282096610845417E+06,
2461071.500000000, A.D. 2026-Jan-31 00:00:00.0000, 3.909660714102142E+08, 2.250588324782554E+08, -6.148641268265665E+06,
2461078.500000000, A.D. 2026-Feb-07 00:00:00.0000, 3.885170477407803E+08, 2.348818544077261E+08, -9.011939615442932E+06,
2461085.500000000, A.D. 2026-Feb-14 00:00:00.0000, 3.858665612479968E+08, 2.445830800472606E+08, -1.187056923648442E+07,
2461092.500000000, A.D. 2026-Feb-21 00:00:00.0000, 3.830197934275331E+08, 2.541598889743124E+08, -1.472316493942262E+07,
2461099.500000000, A.D. 2026-Feb-28 00:00:00.0000, 3.799818615243345E+08, 2.636098409141266E+08, -1.756841676239650E+07,
2461106.500000000, A.D. 2026-Mar-07 00:00:00.0000, 3.767578138006435E+08, 2.729306681808405E+08, -2.040506779869905E+07,
2461113.500000000, A.D. 2026-Mar-14 00:00:00.0000, 3.733526256112985E+08, 2.821202657463353E+08, -2.323191229311383E+07,
2461120.500000000, A.D. 2026-Mar-21 00:00:00.0000, 3.697711980267041E+08, 2.911766818337772E+08, -2.604779394247073E+07,
2461127.500000000, A.D. 2026-Mar-28 00:00:00.0000, 3.660183569512636E+08, 3.000981100620667E+08, -2.885160413678765E+07,
2461134.500000000, A.D. 2026-Apr-04 00:00:00.0000, 3.620988520943141E+08, 3.088828821735675E+08, -3.164228016819736E+07,
2461141.500000000, A.D. 2026-Apr-11 00:00:00.0000, 3.580173560325497E+08, 3.175294609827160E+08, -3.441880346520673E+07,
2461148.500000000, A.D. 2026-Apr-18 00:00:00.0000, 3.537784634922963E+08, 3.260364335351206E+08, -3.718019787000673E+07,
2461155.500000000, A.D. 2026-Apr-25 00:00:00.0000, 3.493866908697622E+08, 3.344025044863459E+08, -3.992552796400963E+07,
2461162.500000000, A.D. 2026-May-02 00:00:00.0000, 3.448464759944398E+08, 3.426264896634565E+08, -4.265389744857964E+07,
2461169.500000000, A.D. 2026-May-09 00:00:00.0000, 3.401621782363639E+08, 3.507073097346367E+08, -4.536444759906127E+07,
2461176.500000000, A.D. 2026-May-16 00:00:00.0000, 3.353380793129935E+08, 3.586439841161366E+08, -4.805635581635205E+07,
2461183.500000000, A.D. 2026-May-23 00:00:00.0000, 3.303783848268843E+08, 3.664356261287276E+08, -5.072883419774529E+07,
2461190.500000000, A.D. 2026-May-30 00:00:00.0000, 3.252872244349928E+08, 3.740814397121049E+08, -5.338112791013591E+07,
2461197.500000000, A.D. 2026-Jun-06 00:00:00.0000, 3.200686503130807E+08, 3.815807144149338E+08, -5.601251360363699E+07,
2461204.500000000, A.D. 2026-Jun-13 00:00:00.0000, 3.147266375663832E+08, 3.889328188514240E+08, -5.862229818574089E+07,
2461211.500000000, A.D. 2026-Jun-20 00:00:00.0000, 3.092650860713354E+08, 3.961371955399714E+08, -6.120981767073737E+07,
2461218.500000000, A.D. 2026-Jun-27 00:00:00.0000, 3.036878220357360E+08, 4.031933567736374E+08, -6.377443597573243E+07,
2461225.500000000, A.D. 2026-Jul-04 00:00:00.0000, 2.979985992646070E+08, 4.101008807381695E+08, -6.631554372592166E+07,
2461232.500000000, A.D. 2026-Jul-11 00:00:00.0000, 2.922011003745490E+08, 4.168594077365010E+08, -6.883255710249922E+07,
2461239.500000000, A.D. 2026-Jul-18 00:00:00.0000, 2.862989380392683E+08, 4.234686365364238E+08, -7.132491673882414E+07,
2461246.500000000, A.D. 2026-Jul-25 00:00:00.0000, 2.802956562816209E+08, 4.299283208353069E+08, -7.379208666597179E+07,
2461253.500000000, A.D. 2026-Aug-01 00:00:00.0000, 2.741947318520190E+08, 4.362382657851790E+08, -7.623355331503248E+07,
2461260.500000000, A.D. 2026-Aug-08 00:00:00.0000, 2.679995759006791E+08, 4.423983245341774E+08, -7.864882459776975E+07,
2461267.500000000, A.D. 2026-Aug-15 00:00:00.0000, 2.617135363523829E+08, 4.484083952270468E+08, -8.103742906591238E+07,
2461274.500000000, A.D. 2026-Aug-22 00:00:00.0000, 2.553399002171412E+08, 4.542684196777958E+08, -8.339891497834530E+07,
2461281.500000000, A.D. 2026-Aug-29 00:00:00.0000, 2.488818935414279E+08, 4.599783823331448E+08, -8.573284917676282E+07,
$$EOE